NORAD_CAT_ID,OBJECT_NAME,OBJECT_TYPE,EPOCH,MEAN_MOTION,ECCENTRICITY,INCLINATION,RA_OF_ASC_NODE,ARG_OF_PERICENTER,MEAN_ANOMALY,BSTAR,MEAN_MOTION_DOT,MEAN_MOTION_DDOT,TLE_LINE0,TLE_LINE1,TLE_LINE2,SEMIMAJOR_AXIS,PERIOD,APOGEE,PERIGEE,DECAYED
55664.0,STARLINK-5480,PAYLOAD,2024-02-18 21:59:56,14.98337123,0.0002967,69.9977,254.9853,271.9154,88.1665,4.2568e-05,4.15e-06,0.0,0 STARLINK-5480,1 55664U 23021AN  24049.91662663  .00000415  00000-0  42568-4 0  9991,2 55664  69.9977 254.9853 0002967 271.9154  88.1665 14.98337123 56976,6950.171,96.107,574.098,569.974,0.0
55664.0,STARLINK-5480,PAYLOAD,2024-02-19 14:01:17,14.9832942,0.0002963,69.9975,253.302,271.9522,88.1298,5.812e-05,6e-06,0.0,0 STARLINK-5480,1 55664U 23021AN  24050.58422972  .00000600  00000-0  58120-4 0  9990,2 55664  69.9975 253.3020 0002963 271.9522  88.1298 14.98329420 57073,6950.195,96.107,574.119,570.0,0.0
55664.0,STARLINK-5480,PAYLOAD,2024-02-19 20:25:49,14.98329379,0.0002965,69.9977,252.6286,272.0094,88.0726,5.8144e-05,6.01e-06,0.0,0 STARLINK-5480,1 55664U 23021AN  24050.85126985  .00000601  00000-0  58144-4 0  9992,2 55664  69.9977 252.6286 0002965 272.0094  88.0726 14.98329379 56818,6950.195,96.107,574.121,569.999,0.0
55664.0,STARLINK-5480,PAYLOAD,2024-02-19 22:01:57,14.98328667,0.0002982,69.9977,252.4603,272.1015,87.9803,4.7102e-05,4.69e-06,0.0,0 STARLINK-5480,1 55664U 23021AN  24050.91803030  .00000469  00000-0  47102-4 0  9996,2 55664  69.9977 252.4603 0002982 272.1015  87.9803 14.98328667 57120,6950.197,96.107,574.135,569.989,0.0
55664.0,STARLINK-5480,PAYLOAD,2024-02-20 14:03:18,14.98331892,0.0002924,69.9979,250.777,272.6125,87.4699,-1.1287e-05,-2.28e-06,0.0,0 STARLINK-5480,1 55664U 23021AN  24051.58562998 -.00000228  00000-0 -11287-4 0  9995,2 55664  69.9979 250.7770 0002924 272.6125  87.4699 14.98331892 57224,6950.187,96.107,574.084,570.02,0.0
55664.0,STARLINK-5480,PAYLOAD,2024-02-20 22:03:58,14.98330699,0.0002949,69.998,249.9353,272.8226,87.2596,-2.3106e-05,-3.69e-06,0.0,0 STARLINK-5480,1 55664U 23021AN  24051.91943055 -.00000369  00000-0 -23106-4 0  9998,2 55664  69.9980 249.9353 0002949 272.8226  87.2596 14.98330699 57277,6950.191,96.107,574.105,570.006,0.0
55664.0,STARLINK-5480,PAYLOAD,2024-02-20 23:40:06,14.98356962,0.0002862,69.9979,249.7665,278.4084,81.675,-0.00043392,-5.27e-05,0.0,0 STARLINK-5480,1 55664U 23021AN  24051.98618274 -.00005270  00000-0 -43392-3 0  9991,2 55664  69.9979 249.7665 0002862 278.4084  81.6750 14.98356962 56985,6950.11,96.105,573.964,569.985,0.0
55664.0,STARLINK-5480,PAYLOAD,2024-02-21 12:29:11,14.98330998,0.0003018,69.998,248.4199,272.7455,87.3359,4.1166e-05,3.98e-06,0.0,0 STARLINK-5480,1 55664U 23021AN  24052.52026792  .00000398  00000-0  41166-4 0  9992,2 55664  69.9980 248.4199 0003018 272.7455  87.3359 14.98330998 57067,6950.19,96.107,574.152,569.957,0.0
55664.0,STARLINK-5480,PAYLOAD,2024-02-21 14:05:19,14.98331944,0.0003009,69.998,248.2521,270.5355,89.5459,5.1727e-05,5.24e-06,0.0,0 STARLINK-5480,1 55664U 23021AN  24052.58702666  .00000524  00000-0  51727-4 0  9994,2 55664  69.9980 248.2521 0003009 270.5355  89.5459 14.98331944 57370,6950.187,96.107,574.143,569.961,0.0
55664.0,STARLINK-5480,PAYLOAD,2024-02-21 22:05:59,14.98332483,0.0003019,69.9981,247.4102,270.6042,89.4771,5.0012e-05,5.04e-06,0.0,0 STARLINK-5480,1 55664U 23021AN  24052.92082582  .00000504  00000-0  50012-4 0  9994,2 55664  69.9981 247.4102 0003019 270.6042  89.4771 14.98332483 57423,6950.185,96.107,574.148,569.952,0.0
55664.0,STARLINK-5480,PAYLOAD,2024-02-22 12:31:12,14.98328527,0.0003001,69.9983,245.8953,270.1787,89.9029,3.1893e-05,2.88e-06,0.0,0 STARLINK-5480,1 55664U 23021AN  24053.52166862  .00000288  00000-0  31893-4 0  9990,2 55664  69.9983 245.8953 0003001 270.1787  89.9029 14.98328527 57215,6950.197,96.107,574.148,569.977,0.0
55664.0,STARLINK-5480,PAYLOAD,2024-02-22 14:07:20,14.98328857,0.0003009,69.9983,245.7269,270.1284,89.953,3.565e-05,3.32e-06,0.0,0 STARLINK-5480,1 55664U 23021AN  24053.58842827  .00000332  00000-0  35650-4 0  9993,2 55664  69.9983 245.7269 0003009 270.1284  89.9530 14.98328857 57521,6950.196,96.107,574.153,569.97,0.0
55664.0,STARLINK-5480,PAYLOAD,2024-02-22 22:08:00,14.98329252,0.0003028,69.9983,244.8852,270.1934,89.8878,2.7585e-05,2.36e-06,0.0,0 STARLINK-5480,1 55664U 23021AN  24053.92222823  .00000236  00000-0  27585-4 0  9990,2 55664  69.9983 244.8852 0003028 270.1934  89.8878 14.98329252 57571,6950.195,96.107,574.165,569.956,0.0
55664.0,STARLINK-5480,PAYLOAD,2024-02-23 12:33:13,14.98330461,0.0003018,69.9985,243.3704,270.2749,89.8064,4.1782e-06,-4.3e-07,0.0,0 STARLINK-5480,1 55664U 23021AN  24054.52306814 -.00000043  00000-0  41782-5 0  9993,2 55664  69.9985 243.3704 0003018 270.2749  89.8064 14.98330461 57365,6950.191,96.107,574.154,569.959,0.0
55664.0,STARLINK-5480,PAYLOAD,2024-02-23 14:09:21,14.98330719,0.0003027,69.9985,243.202,270.1723,89.9089,9.3538e-06,1.9e-07,0.0,0 STARLINK-5480,1 55664U 23021AN  24054.58982795  .00000019  00000-0  93538-5 0  9995,2 55664  69.9985 243.2020 0003027 270.1723  89.9089 14.98330719 57674,6950.191,96.107,574.159,569.952,0.0
55664.0,STARLINK-5480,PAYLOAD,2024-02-23 22:10:01,14.98331653,0.0003061,69.9986,242.3601,269.7197,90.3611,1.485e-09,-9.3e-07,0.0,0 STARLINK-5480,1 55664U 23021AN  24054.92362710 -.00000093  00000-0  14850-8 0  9998,2 55664  69.9986 242.3601 0003061 269.7197  90.3611 14.98331653 57728,6950.188,96.107,574.18,569.925,0.0
55664.0,STARLINK-5480,PAYLOAD,2024-02-24 12:35:13,14.98329507,0.0003084,69.9986,240.845,269.5689,90.5117,4.3169e-05,4.22e-06,0.0,0 STARLINK-5480,1 55664U 23021AN  24055.52446729  .00000422  00000-0  43169-4 0  9994,2 55664  69.9986 240.8450 0003084 269.5689  90.5117 14.98329507 57517,6950.194,96.107,574.203,569.916,0.0
55664.0,STARLINK-5480,PAYLOAD,2024-02-24 14:11:22,14.98329962,0.0003082,69.9986,240.6766,269.5848,90.4958,4.7194e-05,4.7e-06,0.0,0 STARLINK-5480,1 55664U 23021AN  24055.59122697  .00000470  00000-0  47194-4 0  9991,2 55664  69.9986 240.6766 0003082 269.5848  90.4958 14.98329962 57821,6950.193,96.107,574.2,569.916,0.0
55664.0,STARLINK-5480,PAYLOAD,2024-02-24 18:59:46,14.98331355,0.0003087,69.9986,240.1717,269.5919,90.4887,4.3187e-05,4.22e-06,0.0,0 STARLINK-5480,1 55664U 23021AN  24055.79150621  .00000422  00000-0  43187-4 0  9996,2 55664  69.9986 240.1717 0003087 269.5919  90.4887 14.98331355 57859,6950.189,96.107,574.199,569.908,0.0
55664.0,STARLINK-5480,PAYLOAD,2024-02-25 14:13:22,14.98332991,0.0003067,69.9989,238.1518,269.7925,90.2882,6.1151e-05,6.37e-06,0.0,0 STARLINK-5480,1 55664U 23021AN  24056.59262389  .00000637  00000-0  61151-4 0  9999,2 55664  69.9989 238.1518 0003067 269.7925  90.2882 14.98332991 57978,6950.184,96.107,574.18,569.917,0.0
55664.0,STARLINK-5480,PAYLOAD,2024-02-25 20:37:54,14.98335274,0.0003093,69.999,237.4786,270.069,90.0115,7.0479e-05,7.48e-06,0.0,0 STARLINK-5480,1 55664U 23021AN  24056.85966168  .00000748  00000-0  70479-4 0  9990,2 55664  69.9990 237.4786 0003093 270.0690  90.0115 14.98335274 57718,6950.177,96.107,574.191,569.892,0.0
55664.0,STARLINK-5480,PAYLOAD,2024-02-25 22:14:02,14.98335961,0.0003088,69.999,237.3102,270.0786,90.0019,7.7591e-05,8.33e-06,0.0,0 STARLINK-5480,1 55664U 23021AN  24056.92642099  .00000833  00000-0  77591-4 0  9999,2 55664  69.9990 237.3102 0003088 270.0786  90.0019 14.98335961 58020,6950.174,96.107,574.186,569.893,0.0
55664.0,STARLINK-5480,PAYLOAD,2024-02-26 14:15:24,14.98326926,0.0002925,69.9994,235.6269,270.7116,89.3708,-4.2232e-05,-5.97e-06,0.0,0 STARLINK-5480,1 55664U 23021AN  24057.59402994 -.00000597  00000-0 -42232-4 0  9994,2 55664  69.9994 235.6269 0002925 270.7116  89.3708 14.98326926 58120,6950.202,96.107,574.1,570.034,0.0
55664.0,STARLINK-5480,PAYLOAD,2024-02-26 19:03:48,14.98331641,0.0002287,69.9998,235.1234,256.0705,104.02,-0.0001427,-1.795e-05,0.0,0 STARLINK-5480,1 55664U 23021AN  24057.79430995 -.00001795  00000-0 -14270-3 0  9999,2 55664  69.9998 235.1234 0002287 256.0705 104.0200 14.98331641 57854,6950.188,96.107,573.642,570.463,0.0
55664.0,STARLINK-5480,PAYLOAD,2024-02-26 22:16:04,14.9832163,0.0002516,69.9997,234.7864,264.2966,95.7907,2.4205e-05,1.96e-06,0.0,0 STARLINK-5480,1 55664U 23021AN  24057.92783270  .00000196  00000-0  24205-4 0  9993,2 55664  69.9997 234.7864 0002516 264.2966  95.7907 14.98321630 58175,6950.219,96.108,573.832,570.335,0.0
55664.0,STARLINK-5480,PAYLOAD,2024-02-27 14:17:24,14.98331566,0.0002875,69.9997,233.1038,262.8816,97.2016,-6.1148e-06,-1.66e-06,0.0,0 STARLINK-5480,1 55664U 23021AN  24058.59542652 -.00000166  00000-0 -61148-5 0  9991,2 55664  69.9997 233.1038 0002875 262.8816  97.2016 14.98331566 58275,6950.188,96.107,574.051,570.055,0.0
55664.0,STARLINK-5480,PAYLOAD,2024-02-27 19:05:49,14.98331119,0.0002932,69.9995,232.5979,267.2729,92.8095,-1.1363e-05,-2.29e-06,0.0,0 STARLINK-5480,1 55664U 23021AN  24058.79570705 -.00000229  00000-0 -11363-4 0  9996,2 55664  69.9995 232.5979 0002932 267.2729  92.8095 14.98331119 58009,6950.189,96.107,574.092,570.017,0.0
55664.0,STARLINK-5480,PAYLOAD,2024-02-27 22:18:05,14.98332443,0.0003077,69.999,232.2606,268.522,91.5587,3.4806e-06,-5.1e-07,0.0,0 STARLINK-5480,1 55664U 23021AN  24058.92922558 -.00000051  00000-0  34806-5 0  9998,2 55664  69.9990 232.2606 0003077 268.5220  91.5587 14.98332443 58327,6950.185,96.107,574.189,569.912,0.0
55664.0,STARLINK-5480,PAYLOAD,2024-02-28 14:19:25,14.98327665,0.0003042,69.9991,230.5772,266.738,93.3431,9.5396e-05,1.045e-05,0.0,0 STARLINK-5480,1 55664U 23021AN  24059.59682612  .00001045  00000-0  95396-4 0  9999,2 55664  69.9991 230.5772 0003042 266.7380  93.3431 14.98327665 58421,6950.2,96.107,574.179,569.951,0.0
55664.0,STARLINK-5480,PAYLOAD,2024-02-28 19:07:49,14.98328476,0.0003035,69.9993,230.0722,266.0197,94.0615,8.8358e-05,9.61e-06,0.0,0 STARLINK-5480,1 55664U 23021AN  24059.79710614  .00000961  00000-0  88358-4 0  9991,2 55664  69.9993 230.0722 0003035 266.0197  94.0615 14.98328476 58157,6950.198,96.107,574.172,569.953,0.0
